     2              NAVIGATION DATA                         RINEX VERSION / TYPE
CCRINEXN V1.6.0 UX  CDDIS               21-JUN-21 19:31     PGM / RUN BY / DATE 
IGS BROADCAST EPHEMERIS FILE                                COMMENT             
    0.5588D-08  0.1490D-07 -0.5960D-07 -0.1192D-06          ION ALPHA           
    0.8397D+05  0.9830D+05 -0.6554D+05 -0.5243D+06          ION BETA            
    0.372529029846D-08 0.106581410364D-13   147456     2163 DELTA-UTC: A0,A1,T,W
    18                                                      LEAP SECONDS        
                                                            END OF HEADER       
16 21  6 20 16  0  0.0-0.344352331012D-03-0.602540239925D-11 0.000000000000D+00
    0.110000000000D+02 0.851875000000D+02 0.456197573889D-08-0.232336441412D+01
    0.404193997383D-05 0.121815287275D-01 0.389851629734D-05 0.515371244430D+04
    0.576000000000D+05 0.106170773506D-06 0.332347816832D+00-0.189989805222D-06
    0.973662531993D+00 0.310968750000D+03 0.679189052733D+00-0.819962726167D-08
    0.405016870578D-09 0.100000000000D+01 0.216300000000D+04 0.000000000000D+00
    0.200000000000D+01 0.000000000000D+00-0.102445483208D-07 0.110000000000D+02
    0.504180000000D+05 0.400000000000D+01 0.000000000000D+00 0.000000000000D+00
17 21  6 20 16  0  0.0 0.461498275399D-03 0.602540239925D-11 0.000000000000D+00
    0.180000000000D+02-0.768437500000D+02 0.430625080120D-08 0.307089491377D+01
   -0.386685132980D-05 0.133420783095D-01 0.450015068054D-05 0.515361461067D+04
    0.576000000000D+05 0.277534127235D-06 0.134999336124D+01-0.689178705216D-07
    0.981749932271D+00 0.301562500000D+03-0.156545880143D+01-0.794568811266D-08
   -0.276797244002D-09 0.100000000000D+01 0.216300000000D+04 0.000000000000D+00
    0.200000000000D+01 0.000000000000D+00-0.111758708954D-07 0.180000000000D+02
    0.504180000000D+05 0.400000000000D+01 0.000000000000D+00 0.000000000000D+00
18 21  6 20 16  0  0.0 0.345771200955D-03-0.193267624127D-11 0.000000000000D+00
    0.500000000000D+01-0.369375000000D+02 0.418017412103D-08 0.116763861992D+01
   -0.194460153580D-05 0.154407788068D-02 0.111814588308D-04 0.515366695595D+04
    0.576000000000D+05-0.931322574616D-08 0.235861305658D+01-0.279396772385D-07
    0.968471498851D+00 0.163218750000D+03 0.289033396896D+01-0.792318717541D-08
    0.546451333320D-10 0.100000000000D+01 0.216300000000D+04 0.000000000000D+00
    0.200000000000D+01 0.000000000000D+00-0.838190317154D-08 0.261000000000D+03
    0.504180000000D+05 0.400000000000D+01 0.000000000000D+00 0.000000000000D+00
19 21  6 20 16  0  0.0 0.159046612680D-04 0.500222085975D-11 0.000000000000D+00
    0.460000000000D+02-0.698125000000D+02 0.433196615806D-08-0.768503320414D+00
   -0.362657010555D-05 0.932791759260D-02 0.575371086597D-05 0.515363805199D+04
    0.576000000000D+05-0.137835741043D-06 0.139514524666D+01-0.745058059692D-07
    0.980293802132D+00 0.281562500000D+03 0.186434990268D+01-0.828284501374D-08
   -0.214294640518D-09 0.100000000000D+01 0.216300000000D+04 0.000000000000D+00
    0.200000000000D+01 0.000000000000D+00-0.153668224812D-07 0.460000000000D+02
    0.504180000000D+05 0.400000000000D+01 0.000000000000D+00 0.000000000000D+00
20 21  6 20 16  0  0.0 0.520977657288D-03-0.341060513165D-12 0.000000000000D+00
    0.920000000000D+02 0.214062500000D+02 0.520414534497D-08 0.155364651767D+01
    0.123865902424D-05 0.608611339703D-02 0.702776014805D-05 0.515173724365D+04
    0.576000000000D+05 0.111758708954D-07-0.304564968904D+01 0.134110450745D-06
    0.938830518357D+00 0.233656250000D+03 0.303919204095D+01-0.843570852398D-08
    0.240367155114D-09 0.100000000000D+01 0.216300000000D+04 0.000000000000D+00
    0.200000000000D+01 0.000000000000D+00-0.838190317154D-08 0.920000000000D+02
    0.504180000000D+05 0.400000000000D+01 0.000000000000D+00 0.000000000000D+00
21 21  6 20 16  0  0.0 0.126275699586D-03 0.250111042988D-11 0.000000000000D+00
    0.530000000000D+02-0.716562500000D+02 0.428160691754D-08-0.308315664839D+01
   -0.335648655891D-05 0.240184242139D-01 0.114664435387D-04 0.515368572044D+04
    0.576000000000D+05 0.227242708206D-06 0.226284207853D+01 0.430271029472D-06
    0.957495746764D+00 0.148593750000D+03-0.112383961920D+01-0.762067457454D-08
    0.885751180806D-10 0.100000000000D+01 0.216300000000D+04 0.000000000000D+00
    0.200000000000D+01 0.000000000000D+00-0.102445483208D-07 0.530000000000D+02
    0.504180000000D+05 0.400000000000D+01 0.000000000000D+00 0.000000000000D+00
22 21  6 20 16  0  0.0-0.583610497415D-03 0.966338120634D-11 0.000000000000D+00
    0.530000000000D+02 0.207812500000D+02 0.530914971882D-08 0.203528543756D+01
    0.111199915409D-05 0.699973409064D-02 0.689923763275D-05 0.515380155563D+04
    0.576000000000D+05 0.987201929092D-07-0.299931263663D+01 0.000000000000D+00
    0.935524538546D+00 0.228218750000D+03-0.936862814542D+00-0.837642034010D-08
    0.286083345091D-09 0.100000000000D+01 0.216300000000D+04 0.000000000000D+00
    0.200000000000D+01 0.000000000000D+00-0.176951289177D-07 0.530000000000D+02
    0.504180000000D+05 0.400000000000D+01 0.000000000000D+00 0.000000000000D+00
23 21  6 20 16  0  0.0 0.946260988712D-04-0.443378667114D-11 0.000000000000D+00
    0.200000000000D+02 0.800000000000D+01 0.469733852015D-08 0.450849683288D+00
    0.180676579475D-06 0.130282936152D-02 0.686943531036D-05 0.515365050888D+04
    0.576000000000D+05 0.633299350738D-07-0.292547827903D+01-0.111758708954D-07
    0.964764635599D+00 0.251468750000D+03 0.260735618628D+01-0.819141263379D-08
    0.242152943785D-09 0.100000000000D+01 0.216300000000D+04 0.000000000000D+00
    0.200000000000D+01 0.000000000000D+00-0.838190317154D-08 0.532000000000D+03
    0.504180000000D+05 0.400000000000D+01 0.000000000000D+00 0.000000000000D+00
24 21  6 20 16  0  0.0 0.141108408570D-03 0.172803993337D-10 0.000000000000D+00
    0.820000000000D+02 0.468750000000D+02 0.489448958942D-08 0.120494355467D+01
    0.237859785557D-05 0.111570720328D-01 0.112261623144D-04 0.515373118019D+04
    0.576000000000D+05-0.130385160446D-06-0.875380778369D+00 0.763684511185D-07
    0.934925169306D+00 0.149781250000D+03 0.740820969253D+00-0.829034532616D-08
   -0.233938315898D-09 0.100000000000D+01 0.216300000000D+04 0.000000000000D+00
    0.282842707634D+01 0.000000000000D+00 0.279396772385D-08 0.820000000000D+02
    0.506890000000D+05 0.400000000000D+01 0.000000000000D+00 0.000000000000D+00
25 21  6 20 16  0  0.0 0.159354880452D-03 0.682121026330D-11 0.000000000000D+00
    0.103000000000D+03 0.844375000000D+02 0.486698844389D-08-0.754389502254D+00
    0.470317900181D-05 0.985388772096D-02 0.445544719696D-05 0.515361297417D+04
    0.576000000000D+05 0.819563865662D-07 0.239859376797D+00 0.150874257088D-06
    0.960985572952D+00 0.297843750000D+03 0.971064396798D+00-0.852856953487D-08
    0.299298181256D-09 0.100000000000D+01 0.216300000000D+04 0.000000000000D+00
    0.280000000000D+01 0.000000000000D+00 0.558793544769D-08 0.103000000000D+03
    0.504180000000D+05 0.400000000000D+01 0.000000000000D+00 0.000000000000D+00
26 21  6 20 16  0  0.0 0.100805889815D-03 0.477484718431D-11 0.000000000000D+00
    0.700000000000D+02 0.101625000000D+03 0.521628870793D-08-0.143749407278D+01
    0.502541661263D-05 0.590546964668D-02 0.432133674622D-05 0.515357764626D+04
    0.576000000000D+05 0.577419996262D-07 0.197363079753D+00-0.160187482834D-06
    0.941910104279D+00 0.282937500000D+03 0.304733476733D+00-0.860464413225D-08
    0.373944147703D-09 0.100000000000D+01 0.216300000000D+04 0.000000000000D+00
    0.200000000000D+01 0.000000000000D+00 0.698491930962D-08 0.700000000000D+02
    0.504180000000D+05 0.400000000000D+01 0.000000000000D+00 0.000000000000D+00
27 21  6 20 16  0  0.0-0.150268431753D-03-0.613908923697D-11 0.000000000000D+00
    0.610000000000D+02-0.782812500000D+02 0.446232873105D-08 0.300854297238D+01
   -0.410340726376D-05 0.945215683896D-02 0.466406345367D-05 0.515368531609D+04
    0.576000000000D+05-0.558793544769D-07 0.128908500107D+01-0.109896063805D-06
    0.975540829568D+00 0.298125000000D+03 0.634699371811D+00-0.811498087867D-08
   -0.312513017422D-09 0.100000000000D+01 0.216300000000D+04 0.000000000000D+00
    0.200000000000D+01 0.000000000000D+00 0.186264514923D-08 0.610000000000D+02
    0.504180000000D+05 0.400000000000D+01 0.000000000000D+00 0.000000000000D+00
28 21  6 20 16  0  0.0 0.551406759769D-03-0.636646291241D-11 0.000000000000D+00
    0.170000000000D+02 0.839375000000D+02 0.440232623170D-08-0.268809757261D+01
    0.433996319771D-05 0.174921728903D-01 0.361353158951D-05 0.515373310661D+04
    0.576000000000D+05 0.137835741043D-06 0.335909308451D+00 0.258907675743D-06
    0.972757809324D+00 0.309562500000D+03-0.134603930579D+01-0.794925969000D-08
    0.357872049664D-09 0.100000000000D+01 0.216300000000D+04 0.000000000000D+00
    0.200000000000D+01 0.000000000000D+00-0.111758708954D-07 0.170000000000D+02
    0.504180000000D+05 0.400000000000D+01 0.000000000000D+00 0.000000000000D+00
29 21  6 20 16  0  0.0-0.367293134332D-03-0.625277607469D-11 0.000000000000D+00
    0.210000000000D+02-0.685312500000D+02 0.433768068181D-08-0.310955352904D+01
   -0.349618494511D-05 0.194724870380D-02 0.541470944881D-05 0.515362163734D+04
    0.576000000000D+05-0.558793544769D-08 0.136251078906D+01 0.152736902237D-06
    0.983621955391D+00 0.288093750000D+03 0.218175676455D+01-0.813141013444D-08
   -0.237509893240D-09 0.100000000000D+01 0.216300000000D+04 0.000000000000D+00
    0.200000000000D+01 0.000000000000D+00-0.977888703346D-08 0.210000000000D+02
    0.504180000000D+05 0.400000000000D+01 0.000000000000D+00 0.000000000000D+00
